CCSDS_OMM_VERS = 2.0
CREATION_DATE  = 
ORIGINATOR     = 

OBJECT_NAME    = STARLINK-35566
OBJECT_ID      = 2025-235D
CENTER_NAME    = EARTH
REF_FRAME      = TEME
TIME_SYSTEM    = UTC
MEAN_ELEMENT_THEORY = SGP/SGP4

EPOCH          = 2025-11-06T22:00:01.999584
MEAN_MOTION    = 15.60018264
ECCENTRICITY   = .00007749
INCLINATION    = 53.1597
RA_OF_ASC_NODE = 98.4922
ARG_OF_PERICENTER = 68.8032
MEAN_ANOMALY   = 259.9082

EPHEMERIS_TYPE = 0
CLASSIFICATION_TYPE = U
NORAD_CAT_ID   = 66061
ELEMENT_SET_NO = 999
REV_AT_EPOCH   = 411
BSTAR          = -.26578211E-1
MEAN_MOTION_DOT = -.1931362E-1
MEAN_MOTION_DDOT = 0

CCSDS_OMM_VERS = 2.0
CREATION_DATE  = 
ORIGINATOR     = 

OBJECT_NAME    = STARLINK-35421
OBJECT_ID      = 2025-235E
CENTER_NAME    = EARTH
REF_FRAME      = TEME
TIME_SYSTEM    = UTC
MEAN_ELEMENT_THEORY = SGP/SGP4

EPOCH          = 2025-11-06T22:00:01.999584
MEAN_MOTION    = 15.60017274
ECCENTRICITY   = .00007173
INCLINATION    = 53.1595
RA_OF_ASC_NODE = 98.4874
ARG_OF_PERICENTER = 67.9457
MEAN_ANOMALY   = 262.6838

EPHEMERIS_TYPE = 0
CLASSIFICATION_TYPE = U
NORAD_CAT_ID   = 66062
ELEMENT_SET_NO = 999
REV_AT_EPOCH   = 411
BSTAR          = -.26581781E-1
MEAN_MOTION_DOT = -.1931489E-1
MEAN_MOTION_DDOT = 0

CCSDS_OMM_VERS = 2.0
CREATION_DATE  = 
ORIGINATOR     = 

OBJECT_NAME    = STARLINK-35562
OBJECT_ID      = 2025-235F
CENTER_NAME    = EARTH
REF_FRAME      = TEME
TIME_SYSTEM    = UTC
MEAN_ELEMENT_THEORY = SGP/SGP4

EPOCH          = 2025-11-06T22:00:01.999584
MEAN_MOTION    = 15.60018079
ECCENTRICITY   = .00008544
INCLINATION    = 53.1595
RA_OF_ASC_NODE = 98.4833
ARG_OF_PERICENTER = 61.3847
MEAN_ANOMALY   = 271.1594

EPHEMERIS_TYPE = 0
CLASSIFICATION_TYPE = U
NORAD_CAT_ID   = 66063
ELEMENT_SET_NO = 999
REV_AT_EPOCH   = 411
BSTAR          = -.26562244E-1
MEAN_MOTION_DOT = -.1930378E-1
MEAN_MOTION_DDOT = 0

CCSDS_OMM_VERS = 2.0
CREATION_DATE  = 
ORIGINATOR     = 

OBJECT_NAME    = STARLINK-35542
OBJECT_ID      = 2025-235G
CENTER_NAME    = EARTH
REF_FRAME      = TEME
TIME_SYSTEM    = UTC
MEAN_ELEMENT_THEORY = SGP/SGP4

EPOCH          = 2025-11-06T22:00:01.999584
MEAN_MOTION    = 15.60015780
ECCENTRICITY   = .00007452
INCLINATION    = 53.1596
RA_OF_ASC_NODE = 98.4785
ARG_OF_PERICENTER = 60.2818
MEAN_ANOMALY   = 274.1800

EPHEMERIS_TYPE = 0
CLASSIFICATION_TYPE = U
NORAD_CAT_ID   = 66064
ELEMENT_SET_NO = 999
REV_AT_EPOCH   = 411
BSTAR          = -.26523995E-1
MEAN_MOTION_DOT = -.1927709E-1
MEAN_MOTION_DDOT = 0

CCSDS_OMM_VERS = 2.0
CREATION_DATE  = 
ORIGINATOR     = 

OBJECT_NAME    = STARLINK-35375
OBJECT_ID      = 2025-235H
CENTER_NAME    = EARTH
REF_FRAME      = TEME
TIME_SYSTEM    = UTC
MEAN_ELEMENT_THEORY = SGP/SGP4

EPOCH          = 2025-11-06T22:00:01.999584
MEAN_MOTION    = 15.60015955
ECCENTRICITY   = .00008287
INCLINATION    = 53.1594
RA_OF_ASC_NODE = 98.4750
ARG_OF_PERICENTER = 59.7076
MEAN_ANOMALY   = 276.6716

EPHEMERIS_TYPE = 0
CLASSIFICATION_TYPE = U
NORAD_CAT_ID   = 66065
ELEMENT_SET_NO = 999
REV_AT_EPOCH   = 411
BSTAR          = -.26526916E-1
MEAN_MOTION_DOT = -.192796E-1
MEAN_MOTION_DDOT = 0

CCSDS_OMM_VERS = 2.0
CREATION_DATE  = 
ORIGINATOR     = 

OBJECT_NAME    = STARLINK-35179
OBJECT_ID      = 2025-235J
CENTER_NAME    = EARTH
REF_FRAME      = TEME
TIME_SYSTEM    = UTC
MEAN_ELEMENT_THEORY = SGP/SGP4

EPOCH          = 2025-11-06T22:00:01.999584
MEAN_MOTION    = 15.60017455
ECCENTRICITY   = .00006862
INCLINATION    = 53.1595
RA_OF_ASC_NODE = 98.4718
ARG_OF_PERICENTER = 65.1511
MEAN_ANOMALY   = 273.1460

EPHEMERIS_TYPE = 0
CLASSIFICATION_TYPE = U
NORAD_CAT_ID   = 66066
ELEMENT_SET_NO = 999
REV_AT_EPOCH   = 411
BSTAR          = -.26591367E-1
MEAN_MOTION_DOT = -.1932095E-1
MEAN_MOTION_DDOT = 0

CCSDS_OMM_VERS = 2.0
CREATION_DATE  = 
ORIGINATOR     = 

OBJECT_NAME    = STARLINK-35401
OBJECT_ID      = 2025-235K
CENTER_NAME    = EARTH
REF_FRAME      = TEME
TIME_SYSTEM    = UTC
MEAN_ELEMENT_THEORY = SGP/SGP4

EPOCH          = 2025-11-06T22:00:01.999584
MEAN_MOTION    = 15.60014112
ECCENTRICITY   = .00007394
INCLINATION    = 53.1595
RA_OF_ASC_NODE = 98.4673
ARG_OF_PERICENTER = 59.7001
MEAN_ANOMALY   = 280.5138

EPHEMERIS_TYPE = 0
CLASSIFICATION_TYPE = U
NORAD_CAT_ID   = 66067
ELEMENT_SET_NO = 999
REV_AT_EPOCH   = 407
BSTAR          = -.26502167E-1
MEAN_MOTION_DOT = -.1926198E-1
MEAN_MOTION_DDOT = 0

CCSDS_OMM_VERS = 2.0
CREATION_DATE  = 
ORIGINATOR     = 

OBJECT_NAME    = STARLINK-35422
OBJECT_ID      = 2025-235L
CENTER_NAME    = EARTH
REF_FRAME      = TEME
TIME_SYSTEM    = UTC
MEAN_ELEMENT_THEORY = SGP/SGP4

EPOCH          = 2025-11-06T22:00:01.999584
MEAN_MOTION    = 15.60018474
ECCENTRICITY   = .0000807
INCLINATION    = 53.1598
RA_OF_ASC_NODE = 98.4633
ARG_OF_PERICENTER = 65.9786
MEAN_ANOMALY   = 276.1518

EPHEMERIS_TYPE = 0
CLASSIFICATION_TYPE = U
NORAD_CAT_ID   = 66068
ELEMENT_SET_NO = 999
REV_AT_EPOCH   = 407
BSTAR          = -.26596726E-1
MEAN_MOTION_DOT = -.1932581E-1
MEAN_MOTION_DDOT = 0

CCSDS_OMM_VERS = 2.0
CREATION_DATE  = 
ORIGINATOR     = 

OBJECT_NAME    = STARLINK-35279
OBJECT_ID      = 2025-235M
CENTER_NAME    = EARTH
REF_FRAME      = TEME
TIME_SYSTEM    = UTC
MEAN_ELEMENT_THEORY = SGP/SGP4

EPOCH          = 2025-11-06T22:00:01.999584
MEAN_MOTION    = 15.60022051
ECCENTRICITY   = .0000763
INCLINATION    = 53.1597
RA_OF_ASC_NODE = 98.4595
ARG_OF_PERICENTER = 65.1924
MEAN_ANOMALY   = 278.8508

EPHEMERIS_TYPE = 0
CLASSIFICATION_TYPE = U
NORAD_CAT_ID   = 66069
ELEMENT_SET_NO = 999
REV_AT_EPOCH   = 411
BSTAR          = -.26630456E-1
MEAN_MOTION_DOT = -.1934947E-1
MEAN_MOTION_DDOT = 0

CCSDS_OMM_VERS = 2.0
CREATION_DATE  = 
ORIGINATOR     = 

OBJECT_NAME    = STARLINK-35295
OBJECT_ID      = 2025-235N
CENTER_NAME    = EARTH
REF_FRAME      = TEME
TIME_SYSTEM    = UTC
MEAN_ELEMENT_THEORY = SGP/SGP4

EPOCH          = 2025-11-06T22:00:01.999584
MEAN_MOTION    = 15.60014985
ECCENTRICITY   = .00008104
INCLINATION    = 53.1598
RA_OF_ASC_NODE = 98.4521
ARG_OF_PERICENTER = 60.5471
MEAN_ANOMALY   = 287.3334

EPHEMERIS_TYPE = 0
CLASSIFICATION_TYPE = U
NORAD_CAT_ID   = 66070
ELEMENT_SET_NO = 999
REV_AT_EPOCH   = 411
BSTAR          = -.2650052E-1
MEAN_MOTION_DOT = -.1926194E-1
MEAN_MOTION_DDOT = 0

CCSDS_OMM_VERS = 2.0
CREATION_DATE  = 
ORIGINATOR     = 

OBJECT_NAME    = STARLINK-35323
OBJECT_ID      = 2025-235P
CENTER_NAME    = EARTH
REF_FRAME      = TEME
TIME_SYSTEM    = UTC
MEAN_ELEMENT_THEORY = SGP/SGP4

EPOCH          = 2025-11-06T22:00:01.999584
MEAN_MOTION    = 15.60017769
ECCENTRICITY   = .00007417
INCLINATION    = 53.1598
RA_OF_ASC_NODE = 98.4555
ARG_OF_PERICENTER = 63.0118
MEAN_ANOMALY   = 282.9508

EPHEMERIS_TYPE = 0
CLASSIFICATION_TYPE = U
NORAD_CAT_ID   = 66071
ELEMENT_SET_NO = 999
REV_AT_EPOCH   = 411
BSTAR          = -.26570835E-1
MEAN_MOTION_DOT = -.1930836E-1
MEAN_MOTION_DDOT = 0

CCSDS_OMM_VERS = 2.0
CREATION_DATE  = 
ORIGINATOR     = 

OBJECT_NAME    = STARLINK-35299
OBJECT_ID      = 2025-235Q
CENTER_NAME    = EARTH
REF_FRAME      = TEME
TIME_SYSTEM    = UTC
MEAN_ELEMENT_THEORY = SGP/SGP4

EPOCH          = 2025-11-06T22:00:01.999584
MEAN_MOTION    = 15.60015325
ECCENTRICITY   = .00006919
INCLINATION    = 53.1599
RA_OF_ASC_NODE = 98.4474
ARG_OF_PERICENTER = 65.5910
MEAN_ANOMALY   = 284.2074

EPHEMERIS_TYPE = 0
CLASSIFICATION_TYPE = U
NORAD_CAT_ID   = 66072
ELEMENT_SET_NO = 999
REV_AT_EPOCH   = 411
BSTAR          = -.26523356E-1
MEAN_MOTION_DOT = -.1927604E-1
MEAN_MOTION_DDOT = 0

CCSDS_OMM_VERS = 2.0
CREATION_DATE  = 
ORIGINATOR     = 

OBJECT_NAME    = STARLINK-35274
OBJECT_ID      = 2025-235R
CENTER_NAME    = EARTH
REF_FRAME      = TEME
TIME_SYSTEM    = UTC
MEAN_ELEMENT_THEORY = SGP/SGP4

EPOCH          = 2025-11-06T22:00:01.999584
MEAN_MOTION    = 15.60016043
ECCENTRICITY   = .00008481
INCLINATION    = 53.1598
RA_OF_ASC_NODE = 98.4429
ARG_OF_PERICENTER = 60.9920
MEAN_ANOMALY   = 290.7220

EPHEMERIS_TYPE = 0
CLASSIFICATION_TYPE = U
NORAD_CAT_ID   = 66073
ELEMENT_SET_NO = 999
REV_AT_EPOCH   = 411
BSTAR          = -.26522439E-1
MEAN_MOTION_DOT = -.1927691E-1
MEAN_MOTION_DDOT = 0

CCSDS_OMM_VERS = 2.0
CREATION_DATE  = 
ORIGINATOR     = 

OBJECT_NAME    = STARLINK-35321
OBJECT_ID      = 2025-235S
CENTER_NAME    = EARTH
REF_FRAME      = TEME
TIME_SYSTEM    = UTC
MEAN_ELEMENT_THEORY = SGP/SGP4

EPOCH          = 2025-11-06T22:00:01.999584
MEAN_MOTION    = 15.60016868
ECCENTRICITY   = .00006583
INCLINATION    = 53.1598
RA_OF_ASC_NODE = 98.4387
ARG_OF_PERICENTER = 70.7302
MEAN_ANOMALY   = 282.9023

EPHEMERIS_TYPE = 0
CLASSIFICATION_TYPE = U
NORAD_CAT_ID   = 66074
ELEMENT_SET_NO = 999
REV_AT_EPOCH   = 411
BSTAR          = -.26574109E-1
MEAN_MOTION_DOT = -.1930934E-1
MEAN_MOTION_DDOT = 0

CCSDS_OMM_VERS = 2.0
CREATION_DATE  = 
ORIGINATOR     = 

OBJECT_NAME    = STARLINK-35131
OBJECT_ID      = 2025-235T
CENTER_NAME    = EARTH
REF_FRAME      = TEME
TIME_SYSTEM    = UTC
MEAN_ELEMENT_THEORY = SGP/SGP4

EPOCH          = 2025-11-06T22:00:01.999584
MEAN_MOTION    = 15.60016258
ECCENTRICITY   = .00006799
INCLINATION    = 53.1596
RA_OF_ASC_NODE = 98.4258
ARG_OF_PERICENTER = 70.3147
MEAN_ANOMALY   = 289.0675

EPHEMERIS_TYPE = 0
CLASSIFICATION_TYPE = U
NORAD_CAT_ID   = 66075
ELEMENT_SET_NO = 999
REV_AT_EPOCH   = 411
BSTAR          = -.26541403E-1
MEAN_MOTION_DOT = -.1928814E-1
MEAN_MOTION_DDOT = 0

